{"type": "FeatureCollection", "features": [ {"type": "Feature", "properties": {"norad_id": 42969, "name": "SENTINEL-5P", "group": "resource", "lat": -46.86932302901364, "lon": -63.69739559110171, "alt_km": 834.2201452341706, "timestamp": "2025-12-14T05:42:18.115076+00:00", "meta": {"OBJECT_NAME": "SENTINEL-5P", "OBJECT_ID": "2017-064A", "EPOCH": "2025-12-13T16:23:43.981152", "MEAN_MOTION": 14.19517874, "ECCENTRICITY": 9.679e-05, "INCLINATION": 98.7784, "RA_OF_ASC_NODE": 286.2589, "ARG_OF_PERICENTER": 88.6252, "MEAN_ANOMALY": 271.5034, "EPHEMERIS_TYPE": 0, "CLASSIFICATION_TYPE": "U", "NORAD_CAT_ID": 42969, "ELEMENT_SET_NO": 999, "REV_AT_EPOCH": 42324, "BSTAR": 8.3605714e-05, "MEAN_MOTION_DOT": 1.32e-06, "MEAN_MOTION_DDOT": 0}, "tle": {"line1": "1 42969U 17064A   25347.68314793  .00000132  00000+0  83606-4 0  9992", "line2": "2 42969  98.7784 286.2589 0000967  88.6252 271.5034 14.19517874423242"}}, "geometry": {"type": "Point", "coordinates": [-63.69739559110171, -46.86932302901364]}}, {"type": "Feature", "properties": {"norad_id": 42987, "name": "SKYSAT-C11", "group": "resource", "lat": 34.60957046463477, "lon": 120.61031946538878, "alt_km": 421.52263246437724, "timestamp": "2025-12-14T05:42:18.115085+00:00", "meta": {"OBJECT_NAME": "SKYSAT-C11", "OBJECT_ID": "2017-068A", "EPOCH": "2025-12-13T15:35:14.942400", "MEAN_MOTION": 15.47496834, "ECCENTRICITY": 0.00010217, "INCLINATION": 97.4137, "RA_OF_ASC_NODE": 125.1632, "ARG_OF_PERICENTER": 103.1406, "MEAN_ANOMALY": 256.9958, "EPHEMERIS_TYPE": 0, "CLASSIFICATION_TYPE": "U", "NORAD_CAT_ID": 42987, "ELEMENT_SET_NO": 999, "REV_AT_EPOCH": 45445, "BSTAR": 0.00045956447, "MEAN_MOTION_DOT": 0.00023547, "MEAN_MOTION_DDOT": 0}, "tle": {"line1": "1 42987U 17068A   25347.64947850  .00023547  00000+0  45956-3 0  9998", "line2": "2 42987  97.4137 125.1632 0001021 103.1406 256.9958 15.47496834454459"}}, "geometry": {"type": "Point", "coordinates": [120.61031946538878, 34.60957046463477]}}, {"type": "Feature", "properties": {"norad_id": 42988, "name": "SKYSAT-C10", "group": "resource", "lat": 32.163331503609236, "lon": 114.38789049436966, "alt_km": 466.2730464441929, "timestamp": "2025-12-14T05:42:18.115096+00:00", "meta": {"OBJECT_NAME": "SKYSAT-C10", "OBJECT_ID": "2017-068B", "EPOCH": "2025-12-13T15:27:22.857984", "MEAN_MOTION": 15.32088202, "ECCENTRICITY": 0.00053668, "INCLINATION": 97.4254, "RA_OF_ASC_NODE": 118.497, "ARG_OF_PERICENTER": 101.0215, "MEAN_ANOMALY": 259.163, "EPHEMERIS_TYPE": 0, "CLASSIFICATION_TYPE": "U", "NORAD_CAT_ID": 42988, "ELEMENT_SET_NO": 999, "REV_AT_EPOCH": 45393, "BSTAR": 0.0004356523, "MEAN_MOTION_DOT": 0.00013433, "MEAN_MOTION_DDOT": 0}, "tle": {"line1": "1 42988U 17068B   25347.64401456  .00013433  00000+0  43565-3 0  9993", "line2": "2 42988  97.4254 118.4970 0005366 101.0215 259.1630 15.32088202453935"}}, "geometry": {"type": "Point", "coordinates": [114.38789049436966, 32.163331503609236]}}, {"type": "Feature", "properties": {"norad_id": 42989, "name": "SKYSAT-C9", "group": "resource", "lat": -78.89107921459531, "lon": -103.06840854038724, "alt_km": 472.24968203345, "timestamp": "2025-12-14T05:42:18.115106+00:00", "meta": {"OBJECT_NAME": "SKYSAT-C9", "OBJECT_ID": "2017-068C", "EPOCH": "2025-12-13T08:14:42.756288", "MEAN_MOTION": 15.36075926, "ECCENTRICITY": 0.00106414, "INCLINATION": 97.4181, "RA_OF_ASC_NODE": 117.6018, "ARG_OF_PERICENTER": 85.4429, "MEAN_ANOMALY": 274.803, "EPHEMERIS_TYPE": 0, "CLASSIFICATION_TYPE": "U", "NORAD_CAT_ID": 42989, "ELEMENT_SET_NO": 999, "REV_AT_EPOCH": 45417, "BSTAR": 0.00060010096, "MEAN_MOTION_DOT": 0.00021075, "MEAN_MOTION_DDOT": 0}, "tle": {"line1": "1 42989U 17068C   25347.34355042  .00021075  00000+0  60010-3 0  9995", "line2": "2 42989  97.4181 117.6018 0010641  85.4429 274.8030 15.36075926454171"}}, "geometry": {"type": "Point", "coordinates": [-103.06840854038724, -78.89107921459531]}}, {"type": "Feature", "properties": {"norad_id": 42990, "name": "SKYSAT-C8", "group": "resource", "lat": -35.36524274415924, "lon": -67.06901805541033, "alt_km": 473.9741726410575, "timestamp": "2025-12-14T05:42:18.115116+00:00", "meta": {"OBJECT_NAME": "SKYSAT-C8", "OBJECT_ID": "2017-068D", "EPOCH": "2025-12-13T14:40:03.711648", "MEAN_MOTION": 15.32945642, "ECCENTRICITY": 0.00015507, "INCLINATION": 97.4275, "RA_OF_ASC_NODE": 117.6146, "ARG_OF_PERICENTER": 344.4356, "MEAN_ANOMALY": 15.6838, "EPHEMERIS_TYPE": 0, "CLASSIFICATION_TYPE": "U", "NORAD_CAT_ID": 42990, "ELEMENT_SET_NO": 999, "REV_AT_EPOCH": 45384, "BSTAR": 0.00042338522, "MEAN_MOTION_DOT": 0.00013403, "MEAN_MOTION_DDOT": 0}, "tle": {"line1": "1 42990U 17068D   25347.61115407  .00013403  00000+0  42339-3 0  9996", "line2": "2 42990  97.4275 117.6146 0001550 344.4356  15.6838 15.32945642453842"}}, "geometry": {"type": "Point", "coordinates": [-67.06901805541033, -35.36524274415924]}}, {"type": "Feature", "properties": {"norad_id": 42991, "name": "SKYSAT-C7", "group": "resource", "lat": 66.66730898582155, "lon": 101.67732557310944, "alt_km": 457.279011462545, "timestamp": "2025-12-14T05:42:18.115126+00:00", "meta": {"OBJECT_NAME": "SKYSAT-C7", "OBJECT_ID": "2017-068E", "EPOCH": "2025-12-13T15:18:19.915200", "MEAN_MOTION": 15.3235097, "ECCENTRICITY": 0.00075959, "INCLINATION": 97.4284, "RA_OF_ASC_NODE": 118.682, "ARG_OF_PERICENTER": 54.1074, "MEAN_ANOMALY": 306.0871, "EPHEMERIS_TYPE": 0, "CLASSIFICATION_TYPE": "U", "NORAD_CAT_ID": 42991, "ELEMENT_SET_NO": 999, "REV_AT_EPOCH": 45391, "BSTAR": 0.00042652503, "MEAN_MOTION_DOT": 0.00013264, "MEAN_MOTION_DDOT": 0}, "tle": {"line1": "1 42991U 17068E   25347.63773050  .00013264  00000+0  42653-3 0  9997", "line2": "2 42991  97.4284 118.6820 0007595  54.1074 306.0871 15.32350970453916"}}, "geometry": {"type": "Point", "coordinates": [101.67732557310944, 66.66730898582155]}}, {"type": "Feature", "properties": {"norad_id": 42992, "name": "SKYSAT-C6", "group": "resource", "lat": -0.4305550516174142, "lon": -60.33513787350795, "alt_km": 475.1943812769932, "timestamp": "2025-12-14T05:42:18.115136+00:00", "meta": {"OBJECT_NAME": "SKYSAT-C6", "OBJECT_ID": "2017-068F", "EPOCH": "2025-12-13T14:48:28.626336", "MEAN_MOTION": 15.31512646, "ECCENTRICITY": 0.00051473, "INCLINATION": 97.4318, "RA_OF_ASC_NODE": 119.0988, "ARG_OF_PERICENTER": 79.6968, "MEAN_ANOMALY": 280.4854, "EPHEMERIS_TYPE": 0, "CLASSIFICATION_TYPE": "U", "NORAD_CAT_ID": 42992, "ELEMENT_SET_NO": 999, "REV_AT_EPOCH": 45389, "BSTAR": 0.00041488636, "MEAN_MOTION_DOT": 0.00012559, "MEAN_MOTION_DDOT": 0}, "tle": {"line1": "1 42992U 17068F   25347.61699799  .00012559  00000+0  41489-3 0  9995", "line2": "2 42992  97.4318 119.0988 0005147  79.6968 280.4854 15.31512646453892"}}, "geometry": {"type": "Point", "coordinates": [-60.33513787350795, -0.4305550516174142]}}, {"type": "Feature", "properties": {"norad_id": 43111, "name": "CARTOSAT-2F", "group": "resource", "lat": -40.57571515213666, "lon": -140.56711278489263, "alt_km": 514.4945648899511, "timestamp": "2025-12-14T05:42:18.115146+00:00", "meta": {"OBJECT_NAME": "CARTOSAT-2F", "OBJECT_ID": "2018-004A", "EPOCH": "2025-12-13T16:05:25.063872", "MEAN_MOTION": 15.19294081, "ECCENTRICITY": 0.00010808, "INCLINATION": 97.4317, "RA_OF_ASC_NODE": 45.2928, "ARG_OF_PERICENTER": 136.8029, "MEAN_ANOMALY": 223.3291, "EPHEMERIS_TYPE": 0, "CLASSIFICATION_TYPE": "U", "NORAD_CAT_ID": 43111, "ELEMENT_SET_NO": 999, "REV_AT_EPOCH": 43916, "BSTAR": 0.00044153573, "MEAN_MOTION_DOT": 9.255e-05, "MEAN_MOTION_DDOT": 0}, "tle": {"line1": "1 43111U 18004A   25347.67042898  .00009255  00000+0  44154-3 0  9999", "line2": "2 43111  97.4317  45.2928 0001080 136.8029 223.3291 15.19294081439166"}}, "geometry": {"type": "Point", "coordinates": [-140.56711278489263, -40.57571515213666]}}, {"type": "Feature", "properties": {"norad_id": 43259, "name": "GAOFEN-1 02", "group": "resource", "lat": 62.31990562324247, "lon": -118.25886126418295, "alt_km": 634.6812191651634, "timestamp": "2025-12-14T05:42:18.115156+00:00", "meta": {"OBJECT_NAME": "GAOFEN-1 02", "OBJECT_ID": "2018-031A", "EPOCH": "2025-12-13T16:10:00.290208", "MEAN_MOTION": 14.76421687, "ECCENTRICITY": 0.0001771, "INCLINATION": 98.0805, "RA_OF_ASC_NODE": 45.4632, "ARG_OF_PERICENTER": 213.7808, "MEAN_ANOMALY": 146.3288, "EPHEMERIS_TYPE": 0, "CLASSIFICATION_TYPE": "U", "NORAD_CAT_ID": 43259, "ELEMENT_SET_NO": 999, "REV_AT_EPOCH": 41532, "BSTAR": 0.00034431811, "MEAN_MOTION_DOT": 2.342e-05, "MEAN_MOTION_DDOT": 0}, "tle": {"line1": "1 43259U 18031A   25347.67361447  .00002342  00000+0  34432-3 0  9994", "line2": "2 43259  98.0805  45.4632 0001771 213.7808 146.3288 14.76421687415327"}}, "geometry": {"type": "Point", "coordinates": [-118.25886126418295, 62.31990562324247]}}, {"type": "Feature", "properties": {"norad_id": 43260, "name": "GAOFEN-1 03", "group": "resource", "lat": -51.15551331283233, "lon": -144.2559459688127, "alt_km": 647.3856569115833, "timestamp": "2025-12-14T05:42:18.115166+00:00", "meta": {"OBJECT_NAME": "GAOFEN-1 03", "OBJECT_ID": "2018-031B", "EPOCH": "2025-12-13T15:38:45.707424", "MEAN_MOTION": 14.76439364, "ECCENTRICITY": 0.00019286, "INCLINATION": 98.0798, "RA_OF_ASC_NODE": 45.3184, "ARG_OF_PERICENTER": 317.9631, "MEAN_ANOMALY": 42.1431, "EPHEMERIS_TYPE": 0, "CLASSIFICATION_TYPE": "U", "NORAD_CAT_ID": 43260, "ELEMENT_SET_NO": 999, "REV_AT_EPOCH": 41531, "BSTAR": 0.00020910527, "MEAN_MOTION_DOT": 1.403e-05, "MEAN_MOTION_DDOT": 0}, "tle": {"line1": "1 43260U 18031B   25347.65191791  .00001403  00000+0  20911-3 0  9991", "line2": "2 43260  98.0798  45.3184 0001928 317.9631  42.1431 14.76439364415319"}}, "geometry": {"type": "Point", "coordinates": [-144.2559459688127, -51.15551331283233]}}]}